STARLINK-2388           
1 47807U 21018W   26068.70635189  .00000794  00000+0  38947-4 0  9993
2 47807  53.1597 216.6328 0001071  96.2177 263.8945 15.30196777277084
TEVEL2-6                
1 63215U 25052F   26068.64958975  .00021046  00000+0  70909-3 0  9996
2 63215  97.4016 325.0381 0004769  95.6604 264.5181 15.30760889 54861
